{
  "norad_id": 61534,
  "name": "STARLINK-11338 [DTC]",
  "history": [
    {
      "epoch": "2026-03-28T10:49:49.664064Z",
      "apogee_km": 360.5352653831196,
      "perigee_km": 358.93555971493333,
      "latitude_deg": -2.4552031476795208e-05,
      "longitude_deg": 155.48012107821788,
      "height_km": 360.7244299950803,
      "semi_major_axis_km": 6737.872412549026,
      "eccentricity": 0.00011871,
      "inclination_deg": 53.1593,
      "raan_deg": 143.8086,
      "arg_perigee_deg": 95.4196,
      "mean_anomaly_deg": 264.6957,
      "mean_motion_rev_day": 15.69706973
    }
  ]
}